start=new Date('2022-07-30T00:00:00.000Z').valueOf();
sats=[{"ELEMENT_SET_NO":"999","DECAY_DATE":null,"EPOCH":"2022-07-29T22:00:00.999936","RCS_SIZE":"LARGE","OBJECT_NAME":"STARLINK-3968","CENTER_NAME":"EARTH","EPHEMERIS_TYPE":"0","RA_OF_ASC_NODE":"63.3861","REF_FRAME":"TEME","TLE_LINE2":"2 52639  53.2173  63.3861 0001353  63.1720 171.5821 15.58901956  1304","LAUNCH_DATE":"2022-05-14","GP_ID":"209136050","MEAN_MOTION_DDOT":"0.0000000000000","MEAN_MOTION":"15.58901956","OBJECT_ID":"2022-052AT","APOAPSIS":"391.752","ARG_OF_PERICENTER":"63.1720","PERIOD":"92.373","TLE_LINE1":"1 52639U 22052AT  22210.91667824 -.01062419  00000-0 -14789-1 0  9991","PERIAPSIS":"389.920","FILE":"3524848","ECCENTRICITY":"0.00013530","COUNTRY_CODE":"US","CLASSIFICATION_TYPE":"U","INCLINATION":"53.2173","OBJECT_TYPE":"PAYLOAD","SEMIMAJOR_AXIS":"6768.971","NORAD_CAT_ID":"52639","BSTAR":"-0.01478900000000","MEAN_MOTION_DOT":"-0.01062419","TIME_SYSTEM":"UTC","MEAN_ANOMALY":"171.5821","MEAN_ELEMENT_THEORY":"SGP4","SITE":"AFETR","REV_AT_EPOCH":"130"},{"EPHEMERIS_TYPE":"0","RA_OF_ASC_NODE":"63.3538","CENTER_NAME":"EARTH","TLE_LINE2":"2 52640  53.2173  63.3538 0001508  50.4190 180.9993 15.58885229  1307","REF_FRAME":"TEME","DECAY_DATE":null,"ELEMENT_SET_NO":"999","OBJECT_NAME":"STARLINK-3977","EPOCH":"2022-07-29T22:00:00.999936","RCS_SIZE":"LARGE","INCLINATION":"53.2173","CLASSIFICATION_TYPE":"U","OBJECT_TYPE":"PAYLOAD","NORAD_CAT_ID":"52640","SEMIMAJOR_AXIS":"6769.019","PERIAPSIS":"389.863","FILE":"3524848","ECCENTRICITY":"0.00015080","COUNTRY_CODE":"US","SITE":"AFETR","MEAN_ELEMENT_THEORY":"SGP4","REV_AT_EPOCH":"130","MEAN_MOTION_DOT":"-0.01062437","BSTAR":"-0.01479800000000","MEAN_ANOMALY":"180.9993","TIME_SYSTEM":"UTC","MEAN_MOTION_DDOT":"0.0000000000000","MEAN_MOTION":"15.58885229","LAUNCH_DATE":"2022-05-14","GP_ID":"209136291","ARG_OF_PERICENTER":"50.4190","APOAPSIS":"391.905","PERIOD":"92.374","TLE_LINE1":"1 52640U 22052AU  22210.91667824 -.01062437  00000-0 -14798-1 0  9993","OBJECT_ID":"2022-052AU"},{"DECAY_DATE":null,"ELEMENT_SET_NO":"999","OBJECT_NAME":"STARLINK-3991","EPOCH":"2022-07-29T22:00:00.999936","RCS_SIZE":"LARGE","EPHEMERIS_TYPE":"0","RA_OF_ASC_NODE":"63.3939","CENTER_NAME":"EARTH","TLE_LINE2":"2 52641  53.2173  63.3939 0001442  54.6956 180.7257 15.58905361  1307","REF_FRAME":"TEME","MEAN_MOTION_DDOT":"0.0000000000000","MEAN_MOTION":"15.58905361","LAUNCH_DATE":"2022-05-14","GP_ID":"209135526","ARG_OF_PERICENTER":"54.6956","APOAPSIS":"391.802","TLE_LINE1":"1 52641U 22052AV  22210.91667824 -.01062506  00000-0 -14788-1 0  9990","PERIOD":"92.373","OBJECT_ID":"2022-052AV","INCLINATION":"53.2173","CLASSIFICATION_TYPE":"U","OBJECT_TYPE":"PAYLOAD","NORAD_CAT_ID":"52641","SEMIMAJOR_AXIS":"6768.961","ECCENTRICITY":"0.00014420","FILE":"3524848","PERIAPSIS":"389.850","COUNTRY_CODE":"US","SITE":"AFETR","MEAN_ELEMENT_THEORY":"SGP4","REV_AT_EPOCH":"130","BSTAR":"-0.01478800000000","MEAN_MOTION_DOT":"-0.01062506","MEAN_ANOMALY":"180.7257","TIME_SYSTEM":"UTC"},{"COUNTRY_CODE":"US","FILE":"3524848","PERIAPSIS":"389.773","ECCENTRICITY":"0.00015990","SEMIMAJOR_AXIS":"6768.990","OBJECT_TYPE":"PAYLOAD","NORAD_CAT_ID":"52642","INCLINATION":"53.2173","CLASSIFICATION_TYPE":"U","MEAN_ANOMALY":"188.3167","TIME_SYSTEM":"UTC","BSTAR":"-0.01479400000000","MEAN_MOTION_DOT":"-0.01062573","REV_AT_EPOCH":"130","SITE":"AFETR","MEAN_ELEMENT_THEORY":"SGP4","GP_ID":"209136179","LAUNCH_DATE":"2022-05-14","MEAN_MOTION":"15.58895253","MEAN_MOTION_DDOT":"0.0000000000000","OBJECT_ID":"2022-052AW","TLE_LINE1":"1 52642U 22052AW  22210.91667824 -.01062573  00000-0 -14794-1 0  9992","PERIOD":"92.373","ARG_OF_PERICENTER":"45.1033","APOAPSIS":"391.938","CENTER_NAME":"EARTH","RA_OF_ASC_NODE":"63.3706","EPHEMERIS_TYPE":"0","REF_FRAME":"TEME","TLE_LINE2":"2 52642  53.2173  63.3706 0001599  45.1033 188.3167 15.58895253  1306","ELEMENT_SET_NO":"999","DECAY_DATE":null,"RCS_SIZE":"LARGE","EPOCH":"2022-07-29T22:00:00.999936","OBJECT_NAME":"STARLINK-3971"},{"MEAN_MOTION_DDOT":"0.0000000000000","MEAN_MOTION":"15.58915550","GP_ID":"209135652","LAUNCH_DATE":"2022-05-14","ARG_OF_PERICENTER":"49.6653","APOAPSIS":"391.819","PERIOD":"92.372","TLE_LINE1":"1 52643U 22052AX  22210.91667824 -.01062576  00000-0 -14783-1 0  9994","OBJECT_ID":"2022-052AX","INCLINATION":"53.2173","CLASSIFICATION_TYPE":"U","SEMIMAJOR_AXIS":"6768.931","OBJECT_TYPE":"PAYLOAD","NORAD_CAT_ID":"52643","ECCENTRICITY":"0.00015110","FILE":"3524848","PERIAPSIS":"389.774","COUNTRY_CODE":"US","SITE":"AFETR","MEAN_ELEMENT_THEORY":"SGP4","REV_AT_EPOCH":"130","BSTAR":"-0.01478300000000","MEAN_MOTION_DOT":"-0.01062576","MEAN_ANOMALY":"187.7570","TIME_SYSTEM":"UTC","DECAY_DATE":null,"ELEMENT_SET_NO":"999","OBJECT_NAME":"STARLINK-3963","EPOCH":"2022-07-29T22:00:00.999936","RCS_SIZE":"LARGE","EPHEMERIS_TYPE":"0","RA_OF_ASC_NODE":"63.4174","CENTER_NAME":"EARTH","TLE_LINE2":"2 52643  53.2173  63.4174 0001511  49.6653 187.7570 15.58915550  1302","REF_FRAME":"TEME"},{"EPHEMERIS_TYPE":"0","RA_OF_ASC_NODE":"63.3784","CENTER_NAME":"EARTH","TLE_LINE2":"2 52644  53.2173  63.3784 0001471  52.6284 181.4586 15.58898596  1306","REF_FRAME":"TEME","DECAY_DATE":null,"ELEMENT_SET_NO":"999","OBJECT_NAME":"STARLINK-3985","EPOCH":"2022-07-29T22:00:00.999936","RCS_SIZE":"LARGE","CLASSIFICATION_TYPE":"U","INCLINATION":"53.2173","NORAD_CAT_ID":"52644","OBJECT_TYPE":"PAYLOAD","SEMIMAJOR_AXIS":"6768.981","PERIAPSIS":"389.850","FILE":"3524848","ECCENTRICITY":"0.00014710","COUNTRY_CODE":"US","MEAN_ELEMENT_THEORY":"SGP4","SITE":"AFETR","REV_AT_EPOCH":"130","BSTAR":"-0.01479100000000","MEAN_MOTION_DOT":"-0.01062461","TIME_SYSTEM":"UTC","MEAN_ANOMALY":"181.4586","MEAN_MOTION_DDOT":"0.0000000000000","MEAN_MOTION":"15.58898596","GP_ID":"209136403","LAUNCH_DATE":"2022-05-14","ARG_OF_PERICENTER":"52.6284","APOAPSIS":"391.841","TLE_LINE1":"1 52644U 22052AY  22210.91667824 -.01062461  00000-0 -14791-1 0  9997","PERIOD":"92.373","OBJECT_ID":"2022-052AY"},{"TLE_LINE2":"2 52645  53.2173  63.4229 0001336  64.6913 173.3981 15.58918826  1302","REF_FRAME":"TEME","EPHEMERIS_TYPE":"0","RA_OF_ASC_NODE":"63.4229","CENTER_NAME":"EARTH","OBJECT_NAME":"STARLINK-3973","EPOCH":"2022-07-29T22:00:00.999936","RCS_SIZE":"LARGE","DECAY_DATE":null,"ELEMENT_SET_NO":"999","MEAN_ELEMENT_THEORY":"SGP4","SITE":"AFETR","REV_AT_EPOCH":"130","MEAN_MOTION_DOT":"-0.01062514","BSTAR":"-0.01478100000000","TIME_SYSTEM":"UTC","MEAN_ANOMALY":"173.3981","CLASSIFICATION_TYPE":"U","INCLINATION":"53.2173","OBJECT_TYPE":"PAYLOAD","SEMIMAJOR_AXIS":"6768.922","NORAD_CAT_ID":"52645","FILE":"3524848","ECCENTRICITY":"0.00013360","PERIAPSIS":"389.883","COUNTRY_CODE":"US","APOAPSIS":"391.691","ARG_OF_PERICENTER":"64.6913","PERIOD":"92.372","TLE_LINE1":"1 52645U 22052AZ  22210.91667824 -.01062514  00000-0 -14781-1 0  9996","OBJECT_ID":"2022-052AZ","MEAN_MOTION_DDOT":"0.0000000000000","MEAN_MOTION":"15.58918826","GP_ID":"209135925","LAUNCH_DATE":"2022-05-14"},{"MEAN_ELEMENT_THEORY":"SGP4","SITE":"AFETR","REV_AT_EPOCH":"130","BSTAR":"-0.01478600000000","MEAN_MOTION_DOT":"-0.01062506","TIME_SYSTEM":"UTC","MEAN_ANOMALY":"182.6770","CLASSIFICATION_TYPE":"U","INCLINATION":"53.2173","OBJECT_TYPE":"PAYLOAD","SEMIMAJOR_AXIS":"6768.951","NORAD_CAT_ID":"52646","PERIAPSIS":"389.829","FILE":"3524848","ECCENTRICITY":"0.00014580","COUNTRY_CODE":"US","ARG_OF_PERICENTER":"53.4112","APOAPSIS":"391.803","PERIOD":"92.372","TLE_LINE1":"1 52646U 22052BA  22210.91667824 -.01062506  00000-0 -14786-1 0  9993","OBJECT_ID":"2022-052BA","MEAN_MOTION_DDOT":"0.0000000000000","MEAN_MOTION":"15.58908753","LAUNCH_DATE":"2022-05-14","GP_ID":"209135780","TLE_LINE2":"2 52646  53.2173  63.4020 0001458  53.4112 182.6770 15.58908753  1301","REF_FRAME":"TEME","EPHEMERIS_TYPE":"0","RA_OF_ASC_NODE":"63.4020","CENTER_NAME":"EARTH","OBJECT_NAME":"STARLINK-3832","EPOCH":"2022-07-29T22:00:00.999936","RCS_SIZE":"LARGE","DECAY_DATE":null,"ELEMENT_SET_NO":"999"},{"REV_AT_EPOCH":"130","SITE":"AFETR","MEAN_ELEMENT_THEORY":"SGP4","MEAN_ANOMALY":"177.5504","TIME_SYSTEM":"UTC","BSTAR":"-0.01477700000000","MEAN_MOTION_DOT":"-0.01062509","OBJECT_TYPE":"PAYLOAD","SEMIMAJOR_AXIS":"6768.902","NORAD_CAT_ID":"52647","INCLINATION":"53.2174","CLASSIFICATION_TYPE":"U","COUNTRY_CODE":"US","FILE":"3524848","PERIAPSIS":"389.848","ECCENTRICITY":"0.00013580","TLE_LINE1":"1 52647U 22052BB  22210.91667824 -.01062509  00000-0 -14777-1 0  9997","PERIOD":"92.371","APOAPSIS":"391.687","ARG_OF_PERICENTER":"61.8730","OBJECT_ID":"2022-052BB","MEAN_MOTION":"15.58925603","MEAN_MOTION_DDOT":"0.0000000000000","LAUNCH_DATE":"2022-05-14","GP_ID":"209136051","TLE_LINE2":"2 52647  53.2174  63.4385 0001358  61.8730 177.5504 15.58925603  1306","REF_FRAME":"TEME","RA_OF_ASC_NODE":"63.4385","EPHEMERIS_TYPE":"0","CENTER_NAME":"EARTH","OBJECT_NAME":"STARLINK-3846","RCS_SIZE":"LARGE","EPOCH":"2022-07-29T22:00:00.999936","DECAY_DATE":null,"ELEMENT_SET_NO":"999"},{"MEAN_ANOMALY":"181.7599","TIME_SYSTEM":"UTC","MEAN_MOTION_DOT":"-0.01062493","BSTAR":"-0.01478400000000","REV_AT_EPOCH":"130","SITE":"AFETR","MEAN_ELEMENT_THEORY":"SGP4","COUNTRY_CODE":"US","PERIAPSIS":"389.834","FILE":"3524848","ECCENTRICITY":"0.00014360","SEMIMAJOR_AXIS":"6768.941","OBJECT_TYPE":"PAYLOAD","NORAD_CAT_ID":"52648","INCLINATION":"53.2173","CLASSIFICATION_TYPE":"U","OBJECT_ID":"2022-052BC","PERIOD":"92.372","TLE_LINE1":"1 52648U 22052BC  22210.91667824 -.01062493  00000-0 -14784-1 0  9998","APOAPSIS":"391.778","ARG_OF_PERICENTER":"54.9954","LAUNCH_DATE":"2022-05-14","GP_ID":"209136292","MEAN_MOTION":"15.58912134","MEAN_MOTION_DDOT":"0.0000000000000","REF_FRAME":"TEME","TLE_LINE2":"2 52648  53.2173  63.4099 0001436  54.9954 181.7599 15.58912134  1302","CENTER_NAME":"EARTH","RA_OF_ASC_NODE":"63.4099","EPHEMERIS_TYPE":"0","RCS_SIZE":"LARGE","EPOCH":"2022-07-29T22:00:00.999936","OBJECT_NAME":"STARLINK-3854","ELEMENT_SET_NO":"999","DECAY_DATE":null}];
